NORAD_CAT_ID,OBJECT_NAME,OBJECT_TYPE,EPOCH,MEAN_MOTION,ECCENTRICITY,INCLINATION,RA_OF_ASC_NODE,ARG_OF_PERICENTER,MEAN_ANOMALY,BSTAR,MEAN_MOTION_DOT,MEAN_MOTION_DDOT,TLE_LINE0,TLE_LINE1,TLE_LINE2,SEMIMAJOR_AXIS,PERIOD,APOGEE,PERIGEE,DECAYED
49167.0,STARLINK-3054,PAYLOAD,2022-02-01 22:00:00,14.98335289,0.0003172,69.9993,108.3444,275.3171,142.66899999999995,-0.0016008,-0.00019144,0.0,0 STARLINK-3054,1 49167U 21082AP  22032.91667824 -.00019144  00000-0 -16008-2 0  9990,2 49167  69.9993 108.3444 0003172 275.3171 142.6690 14.98335289  3572,6950.177,96.107,574.246,569.837,0.0
49167.0,STARLINK-3054,PAYLOAD,2022-02-02 06:00:00,14.98350308,0.0003221,69.9994,107.5039,272.5794,142.8791,-0.00097293,-0.00011689,0.0,0 STARLINK-3054,1 49167U 21082AP  22033.25001157 -.00011689  00000-0 -97293-3 0  9991,2 49167  69.9994 107.5039 0003221 272.5794 142.8791 14.98350308 23035,6950.13,96.106,574.234,569.756,0.0
49167.0,STARLINK-3054,PAYLOAD,2022-02-02 14:00:01,14.98330485,0.0003286,69.9993,106.6632,278.6972,134.2639,0.00077,9.107e-05,0.0,0 STARLINK-3054,1 49167U 21082AP  22033.58334491  .00009107  00000-0  77000-3 0  9991,2 49167  69.9993 106.6632 0003286 278.6972 134.2639 14.98330485  3587,6950.191,96.107,574.34,569.773,0.0
49167.0,STARLINK-3054,PAYLOAD,2022-02-02 22:00:00,14.98338577,0.0003186,69.9988,105.8226,275.4374,135.014,-0.0012982,-0.00015552,0.0,0 STARLINK-3054,1 49167U 21082AP  22033.91667824 -.00015552  00000-0 -12982-2 0  9997,2 49167  69.9988 105.8226 0003186 275.4374 135.0140 14.98338577  3587,6950.166,96.106,574.246,569.817,0.0
49167.0,STARLINK-3054,PAYLOAD,2022-02-03 14:00:01,14.98340467,0.0003258,69.9989,104.1412,278.6963,126.7631,0.0014872,0.00017702,0.0,0 STARLINK-3054,1 49167U 21082AP  22034.58334491  .00017702  00000-0  14872-2 0  9999,2 49167  69.9989 104.1412 0003258 278.6963 126.7631 14.98340467 23233,6950.161,96.106,574.29,569.761,0.0
49167.0,STARLINK-3054,PAYLOAD,2022-02-03 22:00:01,14.98333663,0.0003166,69.9985,103.3005,275.2029,127.835,-0.0015307,-0.00018311,0.0,0 STARLINK-3054,1 49167U 21082AP  22034.91668981 -.00018311  00000-0 -15307-2 0  9993,2 49167  69.9985 103.3005 0003166 275.2029 127.8350 14.98333663  3588,6950.182,96.107,574.247,569.846,0.0
49167.0,STARLINK-3054,PAYLOAD,2022-02-04 06:00:00,14.98368058,0.0003246,69.9987,102.4599,272.5978,127.8577,-0.004852,-0.00057571,0.0,0 STARLINK-3054,1 49167U 21082AP  22035.25001157 -.00057571  00000-0 -48520-2 0  9991,2 49167  69.9987 102.4599 0003246 272.5978 127.8577 14.98368058 23332,6950.075,96.105,574.196,569.684,0.0
49167.0,STARLINK-3054,PAYLOAD,2022-02-04 14:00:01,14.98299278,0.0003368,69.9986,101.6191,278.0368,119.9951,0.0034614,0.00041421,0.0,0 STARLINK-3054,1 49167U 21082AP  22035.58335648  .00041421  00000-0  34614-2 0  9996,2 49167  69.9986 101.6191 0003368 278.0368 119.9951 14.98299278  3589,6950.288000000001,96.109,574.494,569.812,0.0
49167.0,STARLINK-3054,PAYLOAD,2022-02-04 22:00:00,14.98313343,0.0003336,69.9983,100.7785,274.5567,120.881,0.00054304,6.39e-05,0.0,0 STARLINK-3054,1 49167U 21082AP  22035.91667824  .00006390  00000-0  54304-3 0  9992,2 49167  69.9983 100.7785 0003336 274.5567 120.8810 14.98313343 23433,6950.244000000002,96.108,574.428,569.7909999999998,0.0
49167.0,STARLINK-3054,PAYLOAD,2022-02-05 14:00:01,14.98318047,0.000344,69.9985,99.0972,278.0146,112.3904,0.0036519,0.00043741,0.0,0 STARLINK-3054,1 49167U 21082AP  22036.58334491  .00043741  00000-0  36519-2 0  9995,2 49167  69.9985  99.0972 0003440 278.0146 112.3904 14.98318047 23538,6950.23,96.108,574.486,569.7040000000002,0.0
49167.0,STARLINK-3054,PAYLOAD,2022-02-06 06:00:00,14.983788199999998,0.0003399,69.9987,97.416,273.2179,112.1597,-0.0067691,-0.0008005,0.0,0 STARLINK-3054,1 49167U 21082AP  22037.25001157 -.00080050  00000-0 -67691-2 0  9991,2 49167  69.9987  97.4160 0003399 273.2179 112.1597 14.98378820 23639,6950.042,96.104,574.269,569.545,0.0
49167.0,STARLINK-3054,PAYLOAD,2022-02-06 14:00:01,14.98300342,0.000328,69.9985,96.5753,278.9569,103.9964,0.00095341,0.00011293,0.0,0 STARLINK-3054,1 49167U 21082AP  22037.58335648  .00011293  00000-0  95341-3 0  9997,2 49167  69.9985  96.5753 0003280 278.9569 103.9964 14.98300342  3581,6950.285,96.109,574.429,569.87,0.0
49167.0,STARLINK-3054,PAYLOAD,2022-02-06 20:00:01,14.98312202,0.0003195,69.9984,95.945,277.0474,13.9267,-0.0032082,-0.00038148,0.0,0 STARLINK-3054,1 49167U 21082AP  22037.83334491 -.00038148  00000-0 -32082-2 0  9992,2 49167  69.9984  95.9450 0003195 277.0474  13.9267 14.98312202 23729,6950.248000000001,96.108,574.3340000000002,569.8919999999998,0.0
49167.0,STARLINK-3054,PAYLOAD,2022-02-06 22:00:00,14.98283006,0.000318,69.9985,95.7349,275.1684,105.1763,0.0016379,0.00019481,0.0,0 STARLINK-3054,1 49167U 21082AP  22037.91667824  .00019481  00000-0  16379-2 0  9998,2 49167  69.9985  95.7349 0003180 275.1684 105.1763 14.98283006  3576,6950.3380000000025,96.11,574.413,569.993,0.0
49167.0,STARLINK-3054,PAYLOAD,2022-02-07 06:00:00,14.98327898,0.000325,69.9988,94.8945,274.2926,103.4797,-0.0028799,-0.00034287,0.0,0 STARLINK-3054,1 49167U 21082AP  22038.25001157 -.00034287  00000-0 -28799-2 0  9999,2 49167  69.9988  94.8945 0003250 274.2926 103.4797 14.98327898 23789,6950.199000000001,96.107,574.323,569.806,0.0
49167.0,STARLINK-3054,PAYLOAD,2022-02-07 14:00:01,14.98289772,0.0003235,69.9986,94.0539,280.1369,95.1034,0.0033903,0.00040553,0.0,0 STARLINK-3054,1 49167U 21082AP  22038.58334491  .00040553  00000-0  33903-2 0  9999,2 49167  69.9986  94.0539 0003235 280.1369  95.1034 14.98289772  3572,6950.316999999999,96.11,574.431,569.934,0.0
49167.0,STARLINK-3054,PAYLOAD,2022-02-07 22:00:00,14.98290083,0.0003154,69.9986,93.2135,275.8002,96.8971,0.0021673,0.00025836,0.0,0 STARLINK-3054,1 49167U 21082AP  22038.91667824  .00025836  00000-0  21673-2 0  9993,2 49167  69.9986  93.2135 0003154 275.8002  96.8971 14.98290083 23881,6950.316,96.11,574.373,569.989,0.0
49167.0,STARLINK-3054,PAYLOAD,2022-02-08 14:00:01,14.98300574,0.0003233,69.9988,91.5325,281.0202,86.5922,0.0029473,0.00035225,0.0,0 STARLINK-3054,1 49167U 21082AP  22039.58334491  .00035225  00000-0  29473-2 0  9997,2 49167  69.9988  91.5325 0003233 281.0202  86.5922 14.98300574  3588,6950.284000000002,96.109,574.396,569.9019999999998,0.0
49167.0,STARLINK-3054,PAYLOAD,2022-02-08 22:00:01,14.98295482,0.0003155,69.9988,90.692,275.9845,89.1619,0.0027344,0.00032657,0.0,0 STARLINK-3054,1 49167U 21082AP  22039.91668981  .00032657  00000-0  27344-2 0  9999,2 49167  69.9988  90.6920 0003155 275.9845  89.1619 14.98295482 24033,6950.3,96.109,574.357,569.972,0.0
49167.0,STARLINK-3054,PAYLOAD,2022-02-09 14:00:01,14.98312542,0.0003265,69.999,89.0108,280.8068,79.2157,0.0026065,0.00031132,0.0,0 STARLINK-3054,1 49167U 21082AP  22040.58334491  .00031132  00000-0  26065-2 0  9996,2 49167  69.9990  89.0108 0003265 280.8068  79.2157 14.98312542  3604,6950.246999999999,96.108,574.381,569.8430000000002,0.0
49167.0,STARLINK-3054,PAYLOAD,2022-02-09 22:00:00,14.98301652,0.0003207,69.9989,88.1703,275.4427,82.0642,0.003346,0.00040031,0.0,0 STARLINK-3054,1 49167U 21082AP  22040.91667824  .00040031  00000-0  33460-2 0  9997,2 49167  69.9989  88.1703 0003207 275.4427  82.0642 14.98301652 24185,6950.281,96.109,574.375,569.9169999999998,0.0
49167.0,STARLINK-3054,PAYLOAD,2022-02-10 12:25:54,14.983243599999998,0.0003233,69.9969,86.6539,276.3155,83.7636,0.00014147,1.595e-05,0.0,0 STARLINK-3054,1 49167U 21082AP  22041.51799471  .00001595  00000-0  14147-3 0  9992,2 49167  69.9969  86.6539 0003233 276.3155  83.7636 14.98324360 24261,6950.21,96.107,574.322,569.828,0.0
49167.0,STARLINK-3054,PAYLOAD,2022-02-10 14:00:01,14.98322111,0.0003343,69.999,86.4892,280.2479,72.2791,0.0023589,0.00028161,0.0,0 STARLINK-3054,1 49167U 21082AP  22041.58335648  .00028161  00000-0  23589-2 0  9998,2 49167  69.9990  86.4892 0003343 280.2479  72.2791 14.98322111 24289,6950.217,96.108,574.406,569.759,0.0
49167.0,STARLINK-3054,PAYLOAD,2022-02-10 22:00:00,14.98307725,0.0003296,69.999,85.6487,274.941,75.0208,0.0040152,0.00048119,0.0,0 STARLINK-3054,1 49167U 21082AP  22041.91667824  .00048119  00000-0  40152-2 0  9999,2 49167  69.9990  85.6487 0003296 274.9410  75.0208 14.98307725  3557,6950.262,96.108,574.418,569.836,0.0
49167.0,STARLINK-3054,PAYLOAD,2022-02-11 06:00:00,14.98365458,0.000336,69.9993,84.8084,275.0717,72.3619,-0.0033455,-0.00039823,0.0,0 STARLINK-3054,1 49167U 21082AP  22042.25001157 -.00039823  00000-0 -33455-2 0  9990,2 49167  69.9993  84.8084 0003360 275.0717  72.3619 14.98365458 24385,6950.083000000001,96.105,574.283,569.613,0.0
49167.0,STARLINK-3054,PAYLOAD,2022-02-11 12:27:54,14.98337643,0.0003269,69.9969,84.1288,276.7098,83.3689,0.00017731,2.024e-05,0.0,0 STARLINK-3054,1 49167U 21082AP  22042.51938591  .00002024  00000-0  17731-3 0  9991,2 49167  69.9969  84.1288 0003269 276.7098  83.3689 14.98337643 24413,6950.169,96.107,574.306,569.762,0.0
49167.0,STARLINK-3054,PAYLOAD,2022-02-11 14:00:01,14.98339523,0.0003404,69.999,83.9676,280.128,64.8276,0.0023364,0.00027903,0.0,0 STARLINK-3054,1 49167U 21082AP  22042.58334491  .00027903  00000-0  23364-2 0  9998,2 49167  69.9990  83.9676 0003404 280.1280  64.8276 14.98339523 24435,6950.163000000001,96.106,574.394,569.663,0.0
49167.0,STARLINK-3054,PAYLOAD,2022-02-11 22:00:01,14.98324632,0.0003348,69.9991,83.12700000000002,274.9801,67.5594,0.0049038999999999,0.00058907,0.0,0 STARLINK-3054,1 49167U 21082AP  22042.91668981  .00058907  00000-0  49039-2 0  9994,2 49167  69.9991  83.1270 0003348 274.9801  67.5594 14.98324632  3586,6950.209,96.107,574.401,569.748,0.0
49167.0,STARLINK-3054,PAYLOAD,2022-02-12 06:00:00,14.98398073,0.0003369,69.9993,82.2866,275.7634,64.2067,-0.0070357,-0.00083203,0.0,0 STARLINK-3054,1 49167U 21082AP  22043.25001157 -.00083203  00000-0 -70357-2 0  9994,2 49167  69.9993  82.2866 0003369 275.7634  64.2067 14.98398073 24532,6949.982,96.103,574.189,569.506,0.0
